0 EUTE KA SAT 9A (KA SAT)
1 37258U 10069A   22047.37557705  .00000064  00000-0  00000-0 0  9995
2 37258   0.0524 257.9515 0001601 179.3754 213.1981  1.00274770 28133
0 HISPASAT 30W-5
1 37264U 10070A   22047.36790184 -.00000214  00000-0  00000-0 0  9991
2 37264   0.0226 122.5079 0002387 213.5172 272.7319  1.00271933 37323
0 KOREASAT 6
1 37265U 10070B   22047.90223295 -.00000360  00000-0  00000-0 0  9998
2 37265   0.0132  89.3092 0001376 237.3786 260.9555  1.00270348 40916
0 ELEKTRO-L
1 37344U 11001A   22047.60042557  .00000055  00000-0  00000-0 0  9998
2 37344   6.0655  68.5443 0007780 347.0278   3.2532  1.00388375 40620
0 BEIDOU 8
1 37384U 11013A   22047.32316145 -.00000138  00000-0  00000-0 0  9994
2 37384  60.1237  55.4582 0020219 195.1012 119.9993  1.00287708 39802
0 INTELSAT NEW DAWN
1 37392U 11016A   22047.59571580  .00000157  00000-0  00000-0 0  9991
2 37392   0.0310 225.3400 0000678 245.1357 283.2906  1.00271270 37420
0 YAHSAT 1A
1 37393U 11016B   22047.25257825  .00000102  00000-0  00000-0 0  9998
2 37393   0.0228 140.4946 0001865 175.7104 333.4482  1.00272484 26533
0 SBIRS GEO 1 (USA 230)
1 37481U 11019A   22047.86061281 -.00000005  00000-0  00000-0 0  9998
2 37481   1.8408  17.0897 0001831 312.5689 193.1526  1.00272245 39546
0 TELSTAR 14R
1 37602U 11021A   22047.50483442 -.00000278  00000-0  00000-0 0  9996
2 37602   0.0361 316.5632 0003084  26.4484 282.1812  1.00271488 39972
0 GSAT 8
1 37605U 11022A   22047.60016392  .00000086  00000-0  00000-0 0  9993
2 37605   0.0563 277.4302 0007426   8.4023 131.8546  1.00270676 37353
0 ST 2
1 37606U 11022B   22047.87271628 -.00000210  00000-0  00000-0 0  9998
2 37606   0.0121 112.4798 0002113 239.1732 197.3459  1.00272597 39423
0 CHINASAT 10
1 37677U 11026A   22047.90978312 -.00000351  00000-0  00000-0 0  9994
2 37677   0.0559 250.4175 0001746 311.9144  22.5489  1.00272185 39138
0 TIANLIAN 1-02
1 37737U 11032A   22047.85118741 -.00000049  00000-0  00000-0 0  9998
2 37737   2.6784  74.6990 0077105 357.2725 188.2803  1.00269128 38866
0 GSAT 12
1 37746U 11034A   22047.16817219  .00000126  00000-0  00000-0 0  9995
2 37746   1.0727  94.0088 0007890 337.2918 183.3210  1.00271900 27638
0 SES 3
1 37748U 11035A   22047.77018255 -.00000100  00000-0  00000-0 0  9991
2 37748   0.0593 294.9510 0002804  32.6197 353.3984  1.00271583 38744
0 KAZSAT 2
1 37749U 11035B   22047.87271628 -.00000196  00000-0  00000-0 0  9993
2 37749   0.0494 274.0493 0001060 118.8317 154.6322  1.00271778 37538
0 BEIDOU 9
1 37763U 11038A   22047.33219269 -.00000088  00000-0  00000-0 0  9996
2 37763  54.4762 179.8153 0088682 225.3056 314.7229  1.00259748 38785
0 ASTRA 1N
1 37775U 11041A   22047.59301201  .00000122  00000-0  00000-0 0  9997
2 37775   0.0542 331.7268 0004190  35.3626  12.1323  1.00274680 28663
0 BSAT-3C
1 37776U 11041B   22047.90978312 -.00000349  00000-0  00000-0 0  9998
2 37776   0.0330 330.9687 0000330  68.1337 185.2303  1.00269905 34627
0 PAKSAT 1R
1 37779U 11042A   22047.59676240  .00000155  00000-0  00000-0 0  9996
2 37779   0.0507 312.6596 0002650  65.1528  21.6150  1.00276657 38616
0 CHINASAT 1A
1 37804U 11047A   22047.90660691 -.00000336  00000-0  00000-0 0  9990
2 37804   0.0164 173.7869 0001881 159.4308 269.8539  1.00271183 11506
0 COSMOS 2473
1 37806U 11048A   22047.57016084 -.00000130  00000-0  00000-0 0  9999
2 37806   1.5379  92.6069 0000911  61.7609 101.8657  1.00159229 38179
0 SES 2
1 37809U 11049A   22047.89898840 -.00000194  00000-0  00000-0 0  9996
2 37809   0.0605 288.2399 0003431  46.6401  48.5847  1.00272843 38108
0 ARABSAT 5C
1 37810U 11049B   22047.59318646  .00000125  00000-0  00000-0 0  9999
2 37810   0.0560  11.9647 0001924 225.9401 142.1535  1.00271732 38194
0 EUTE 7 WEST A (AB 7)
1 37816U 11051A   22047.37243720 -.00000058  00000-0  00000-0 0  9990
2 37816   0.0652  25.9269 0002903 207.1520  40.0096  1.00272701 38037
0 QUETZSAT 1
1 37826U 11054A   22047.50204344 -.00000240  00000-0  00000-0 0  9991
2 37826   0.0120 276.4549 0002767  60.9312 272.8253  1.00274556 34030
0 INTELSAT 18
1 37834U 11056A   22047.71412463  .00000054  00000-0  00000-0 0  9990
2 37834   0.0238  58.0644 0002494 291.4440 234.2207  1.00271128 37956
0 EUTE 16A (EUTE W3C)
1 37836U 11057A   22047.59240149  .00000105  00000-0  00000-0 0  9996
2 37836   0.0700 351.8687 0005252 338.5260  45.3873  1.00271140 30105
0 VIASAT 1
1 37843U 11059A   22047.66778411 -.00000021  00000-0  00000-0 0  9990
2 37843   0.0259 129.7250 0002511 204.4115 297.7800  1.00268949 31461
0 ASIASAT 7
1 37933U 11069A   22047.53841341 -.00000333  00000-0  00000-0 0  9996
2 37933   0.0374 250.7720 0001795  43.0275 152.0268  1.00272688 37601
0 BEIDOU 10
1 37948U 11073A   22047.23120295 -.00000106  00000-0  00000-0 0  9990
2 37948  50.5397 290.7297 0077088 218.6306 175.8113  1.00280335 37541
0 AMOS 5
1 37950U 11074A   22047.59972781  .00000085  00000-0  00000-0 0  9993
2 37950   5.0055  76.5453 0005209 336.0645   2.4196  1.00368053 37136
0 LUCH 5A
1 37951U 11074B   22047.84158578 -.00000045  00000-0  00000-0 0  9999
2 37951   4.7156 100.0815 0002944 242.4196 274.2658  1.00275370 37337
0 NIGCOMSAT 1R
1 38014U 11077A   22047.59763458  .00000146  00000-0  00000-0 0  9995
2 38014   0.0632 296.1120 0002733  85.8469  22.1921  1.00270307 37091
0 FENGYUN 2F
1 38049U 12002A   22047.61150227 -.00000355  00000-0  00000+0 0  9991
2 38049   3.4967  80.6026 0005585 350.8336  47.2193  1.00262514 37038
0 WGS F4 (USA 233)
1 38070U 12003A   22047.87271628 -.00000214  00000-0  00000-0 0  9998
2 38070   0.0090 140.1369 0000716 147.1056 262.1459  1.00276702 28296
0 SES 4
1 38087U 12007A   22047.36947177 -.00000167  00000-0  00000-0 0  9990
2 38087   0.0159  45.5694 0002313 279.7397 291.9978  1.00269924 36376
0 BEIDOU 11
1 38091U 12008A   22047.73799602  .00000059  00000-0  00000-0 0  9994
2 38091   2.0955  72.1281 0008357 284.7027 114.2212  1.00272165 36622
0 MUOS 1
1 38093U 12009A   22047.57684189 -.00000124  00000-0  00000-0 0  9996
2 38093   2.8064  28.6860 0056983 356.6482 228.8738  1.00271929 36581
0 INTELSAT 22
1 38098U 12011A   22047.85605042 -.00000057  00000-0  00000-0 0  9991
2 38098   0.0063 109.9775 0002763 219.6627 197.4136  1.00270376 35968
0 COSMOS 2479
1 38101U 12012A   22047.60496090 -.00000157  00000-0  00000-0 0  9992
2 38101   5.1917  69.3241 0004335 264.7254 109.3219  1.00401162 36221
0 APSTAR 7
1 38107U 12013A   22047.84910424 -.00000100  00000-0  00000-0 0  9995
2 38107   0.0256 115.6536 0002977 237.6140 175.7090  1.00271784 35950
0 YAHSAT 1B
1 38245U 12016A   22047.25257825  .00000128  00000-0  00000+0 0  9993
2 38245   0.0117 119.2234 0002685 212.2029 313.3032  1.00273842 36050
0 AEHF 2 (USA 235)
1 38254U 12019A   22047.57042250 -.00000157  00000-0  00000-0 0  9999
2 38254   3.0964  59.8073 0003844 266.6927 291.1817  1.00271305 34998
0 JCSAT 13
1 38331U 12023A   22047.91458102 -.00000355  00000-0  00000-0 0  9995
2 38331   0.0147 148.8813 0002386 201.3334 249.8827  1.00273215 35672
0 VINASAT 2
1 38332U 12023B   22047.61551431 -.00000328  00000-0  00000-0 0  9992
2 38332   0.0038  71.9524 0002426 271.2338 156.8021  1.00270393 30809
0 NIMIQ 6
1 38342U 12026A   22047.57103303 -.00000172  00000-0  00000-0 0  9999
2 38342   0.0567 285.6003 0002643  42.9929 292.3967  1.00270396 34568
0 CHINASAT 2A
1 38352U 12028A   22047.69910420 -.00000291  00000-0  00000-0 0  9993
2 38352   0.0261 216.2606 0002971 141.0997 139.1958  1.00270438 35521
0 INTELSAT 19
1 38356U 12030A   22047.85118741 -.00000055  00000-0  00000-0 0  9992
2 38356   0.0123 107.3056 0003127 236.4334 275.4842  1.00271954 34584
0 ECHOSTAR 17
1 38551U 12035A   22047.67462949 -.00000073  00000-0  00000-0 0  9996
2 38551   0.0149 107.6888 0001900 217.8563 316.8360  1.00272013 35201
0 METEOSAT 10 (MSG 3)
1 38552U 12035B   22047.59109323  .00000062  00000-0  00000-0 0  9999
2 38552   1.3650  32.9576 0001439 238.7773  96.9714  1.00266460 34992
0 SES 5
1 38652U 12036A   22047.73938378  .00000035  00000-0  00000-0 0  9997
2 38652   0.0576 294.5590 0002138  30.6867  92.5917  1.00272150 28621
0 TIANLIAN 1-03
1 38730U 12040A   22047.23109012  .00000127  00000-0  00000-0 0  9991
2 38730   1.7099  93.0489 0005942 301.4153 215.4049  1.00277988 35127
0 INTELSAT 20
1 38740U 12043A   22047.85257604 -.00000023  00000-0  00000-0 0  9990
2 38740   0.0210 123.3796 0001378  58.0841 340.7425  1.00270643 34895
0 HYLAS 2
1 38741U 12043B   22047.59536691  .00000156  00000-0  00000-0 0  9994
2 38741   0.0571 284.2136 0001938  34.1882  73.5264  1.00274715 34901
0 INTELSAT 21
1 38749U 12045A   22047.50588104 -.00000283  00000-0  00000-0 0  9993
2 38749   0.0182 134.1912 0002178 193.0138 303.3842  1.00266824 34670
0 ASTRA 2F
1 38778U 12051A   22047.59484361  .00000151  00000-0  00000-0 0  9994
2 38778   0.0907 252.7698 0002990  23.4902 112.5985  1.00270540 25265
0 GSAT 10
1 38779U 12051B   22047.87271628 -.00000164  00000-0  00000-0 0  9991
2 38779   0.1314 271.0165 0002851 343.9737 289.0108  1.00273583 34261
0 INTELSAT 23
1 38867U 12057A   22047.36327928 -.00000283  00000-0  00000-0 0  9996
2 38867   0.0321 229.1296 0001840  96.3581 258.5896  1.00272105 34082
0 BEIDOU 16
1 38953U 12059A   22047.87271628 -.00000173  00000-0  00000-0 0  9993
2 38953   1.6896  84.6539 0013105 282.4985 177.8482  1.00270156 34054
0 LUCH 5B
1 38977U 12061A   22047.37060561 -.00000132  00000-0  00000-0 0  9994
2 38977   7.0307  63.5156 0001236 323.4663 236.4176  1.00271365 34313
0 YAMAL 300K
1 38978U 12061B   22047.77018567  .00000072  00000-0  00000-0 0  9990
2 38978   0.0252 126.6082 0000420 139.1073 341.2390  1.00268699 33774
0 STARONE C3
1 38991U 12062A   22047.57426010 -.00000247  00000-0  00000-0 0  9995
2 38991   0.0621 282.6269 0002356  53.2794 302.3410  1.00270439 33906
0 EUTE 21B
1 38992U 12062B   22047.80342764  .00000131  00000-0  00000-0 0  9996
2 38992   0.0685  16.7157 0002212 320.1468 120.6904  1.00270974 33985
0 ECHOSTAR 16
1 39008U 12065A   22047.57661500 -.00000280  00000-0  00000-0 0  9990
2 39008   0.0120 112.2982 0002188 224.4730 315.8309  1.00270741 33761
